[{"OBJECT_NAME":"SHIJIAN-6 02B (SJ-6 02B)","OBJECT_ID":"2006-046B","EPOCH":"2026-03-09T23:09:06.940224","MEAN_MOTION":15.01001333,"ECCENTRICITY":0.00140021,"INCLINATION":97.7065,"RA_OF_ASC_NODE":98.697,"ARG_OF_PERICENTER":42.7506,"MEAN_ANOMALY":317.4805,"EPHEMERIS_TYPE":0,"CLASSIFICATION_TYPE":"U","NORAD_CAT_ID":29506,"ELEMENT_SET_NO":999,"REV_AT_EPOCH":5585,"BSTAR":0.00024683398,"MEAN_MOTION_DOT":3.096e-5,"MEAN_MOTION_DDOT":0},{"OBJECT_NAME":"STARLINK-5555","OBJECT_ID":"2023-013BH","EPOCH":"2026-03-09T00:22:07.061664","MEAN_MOTION":15.0252825,"ECCENTRICITY":0.00013572,"INCLINATION":43.0047,"RA_OF_ASC_NODE":316.4977,"ARG_OF_PERICENTER":272.1592,"MEAN_ANOMALY":87.9095,"EPHEMERIS_TYPE":0,"CLASSIFICATION_TYPE":"U","NORAD_CAT_ID":55386,"ELEMENT_SET_NO":999,"REV_AT_EPOCH":17146,"BSTAR":-5.3830101e-5,"MEAN_MOTION_DOT":-9.31e-6,"MEAN_MOTION_DDOT":0}]
